[{"OBJECT_NAME":"OBJECT AL","OBJECT_ID":"2023-085AL","EPOCH":"2026-03-09T22:26:04.970400","MEAN_MOTION":15.31857284,"ECCENTRICITY":0.000802,"INCLINATION":97.4839,"RA_OF_ASC_NODE":180.0127,"ARG_OF_PERICENTER":78.7242,"MEAN_ANOMALY":281.49,"EPHEMERIS_TYPE":0,"CLASSIFICATION_TYPE":"U","NORAD_CAT_ID":57038,"ELEMENT_SET_NO":999,"REV_AT_EPOCH":15154,"BSTAR":0.0006591637,"MEAN_MOTION_DOT":0.00020246,"MEAN_MOTION_DDOT":0},{"OBJECT_NAME":"STARLINK-34623","OBJECT_ID":"2025-161D","EPOCH":"2026-03-09T22:32:53.057472","MEAN_MOTION":15.30187442,"ECCENTRICITY":0.00013296,"INCLINATION":53.1606,"RA_OF_ASC_NODE":293.3632,"ARG_OF_PERICENTER":77.5245,"MEAN_ANOMALY":282.5904,"EPHEMERIS_TYPE":0,"CLASSIFICATION_TYPE":"U","NORAD_CAT_ID":65018,"ELEMENT_SET_NO":999,"REV_AT_EPOCH":3536,"BSTAR":0.00050955954,"MEAN_MOTION_DOT":0.00014757,"MEAN_MOTION_DDOT":0}]
